{
    "links": {
        "self": "http://www.neowsapp.com/rest/v1/neo/3674332?api_key=iIulBulltgU6a56xZRHN4H3l9WmuAYTsLGpBGhQ2"
    },
    "id": "3674332",
    "neo_reference_id": "3674332",
    "name": "(2014 MG55)",
    "designation": "2014 MG55",
    "nasa_jpl_url": "http://ssd.jpl.nasa.gov/sbdb.cgi?sstr=3674332",
    "absolute_magnitude_h": 24.1,
    "estimated_diameter": {
        "kilometers": {
            "estimated_diameter_min": 0.040230458,
            "estimated_diameter_max": 0.0899580388
        },
        "meters": {
            "estimated_diameter_min": 40.2304579834,
            "estimated_diameter_max": 89.9580388169
        },
        "miles": {
            "estimated_diameter_min": 0.0249980399,
            "estimated_diameter_max": 0.0558973165
        },
        "feet": {
            "estimated_diameter_min": 131.9896957704,
            "estimated_diameter_max": 295.1379320721
        }
    },
    "is_potentially_hazardous_asteroid": false,
    "close_approach_data": [
        {
            "close_approach_date": "1907-07-16",
            "close_approach_date_full": "1907-Jul-16 06:25",
            "epoch_date_close_approach": -1971192900000,
            "relative_velocity": {
                "kilometers_per_second": "9.0392071869",
                "kilometers_per_hour": "32541.14587271",
                "miles_per_hour": "20219.8025562958"
            },
            "miss_distance": {
                "astronomical": "0.1016574063",
                "lunar": "39.5447310507",
                "kilometers": "15207731.452204581",
                "miles": "9449646.1384859778"
            },
            "orbiting_body": "Earth"
        },
        {
            "close_approach_date": "1921-09-16",
            "close_approach_date_full": "1921-Sep-16 10:27",
            "epoch_date_close_approach": -1523971980000,
            "relative_velocity": {
                "kilometers_per_second": "17.6536571001",
                "kilometers_per_hour": "63553.1655603899",
                "miles_per_hour": "39489.4655672323"
            },
            "miss_distance": {
                "astronomical": "0.468236136",
                "lunar": "182.143856904",
                "kilometers": "70047128.60263032",
                "miles": "43525267.420205616"
            },
            "orbiting_body": "Earth"
        },
        {
            "close_approach_date": "2000-06-18",
            "close_approach_date_full": "2000-Jun-18 11:48",
            "epoch_date_close_approach": 961328880000,
            "relative_velocity": {
                "kilometers_per_second": "19.2759697793",
                "kilometers_per_hour": "69393.4912054253",
                "miles_per_hour": "43118.4167992822"
            },
            "miss_distance": {
                "astronomical": "0.4770535576",
                "lunar": "185.5738339064",
                "kilometers": "71366196.092882312",
                "miles": "44344897.9518754256"
            },
            "orbiting_body": "Earth"
        },
        {
            "close_approach_date": "2014-07-25",
            "close_approach_date_full": "2014-Jul-25 12:28",
            "epoch_date_close_approach": 1406291280000,
            "relative_velocity": {
                "kilometers_per_second": "7.8649796444",
                "kilometers_per_hour": "28313.9267198392",
                "miles_per_hour": "17593.1729665578"
            },
            "miss_distance": {
                "astronomical": "0.0674067585",
                "lunar": "26.2212290565",
                "kilometers": "10083907.495204395",
                "miles": "6265849.566214851"
            },
            "orbiting_body": "Earth"
        },
        {
            "close_approach_date": "2028-09-17",
            "close_approach_date_full": "2028-Sep-17 08:24",
            "epoch_date_close_approach": 1852791840000,
            "relative_velocity": {
                "kilometers_per_second": "17.4253560739",
                "kilometers_per_hour": "62731.2818660332",
                "miles_per_hour": "38978.7790017027"
            },
            "miss_distance": {
                "astronomical": "0.4606859616",
                "lunar": "179.2068390624",
                "kilometers": "68917638.594261792",
                "miles": "42823434.8734130496"
            },
            "orbiting_body": "Earth"
        }
    ],
    "orbital_data": {
        "orbit_id": "7",
        "orbit_determination_date": "2017-04-06 08:39:51",
        "first_observation_date": "2014-06-27",
        "last_observation_date": "2014-08-03",
        "data_arc_in_days": 37,
        "observations_used": 18,
        "orbit_uncertainty": "7",
        "minimum_orbit_intersection": ".069634",
        "jupiter_tisserand_invariant": "3.692",
        "epoch_osculation": "2459000.5",
        "eccentricity": ".4623481991996911",
        "semi_major_axis": "1.993303187278685",
        "inclination": "9.784452509252102",
        "ascending_node_longitude": "114.5071659200423",
        "orbital_period": "1027.917994198355",
        "perihelion_distance": "1.07170304818138",
        "perihelion_argument": "200.9637511222391",
        "aphelion_distance": "2.914903326375989",
        "perihelion_time": "2458932.358621818975",
        "mean_anomaly": "23.86464317545088",
        "mean_motion": ".3502224905409446",
        "equinox": "J2000",
        "orbit_class": {
            "orbit_class_type": "AMO",
            "orbit_class_description": "Near-Earth asteroid orbits similar to that of 1221 Amor",
            "orbit_class_range": "1.017 AU < q (perihelion) < 1.3 AU"
        }
    },
    "is_sentry_object": false
}